{
 "type": "FeatureCollection",
 "features": [
  {
   "type": "Feature",
   "id": "BLDG-001",
   "properties": {
    "id": "BLDG-001",
    "layer": "BUILDING_FOOTPRINT",
    "source_type": "agent_generated_design",
    "confidence": "medium",
    "geometry_role": "design_proposal",
    "building_type": "ai_r_and_d",
    "name_zh": "大钟寺AI研发建筑群"
   },
   "geometry": {
    "type": "Polygon",
    "coordinates": [
     [
      [
       116.3445,
       39.941
      ],
      [
       116.352,
       39.941
      ],
      [
       116.352,
       39.9475
      ],
      [
       116.3445,
       39.9475
      ],
      [
       116.3445,
       39.941
      ]
     ]
    ]
   }
  },
  {
   "type": "Feature",
   "id": "BLDG-002",
   "properties": {
    "id": "BLDG-002",
    "layer": "BUILDING_FOOTPRINT",
    "source_type": "agent_generated_design",
    "confidence": "medium",
    "geometry_role": "design_proposal",
    "building_type": "mixed_use",
    "name_zh": "更新综合办公街区"
   },
   "geometry": {
    "type": "Polygon",
    "coordinates": [
     [
      [
       116.3425,
       39.954
      ],
      [
       116.35,
       39.954
      ],
      [
       116.35,
       39.959
      ],
      [
       116.3425,
       39.959
      ],
      [
       116.3425,
       39.954
      ]
     ]
    ]
   }
  },
  {
   "type": "Feature",
   "id": "BLDG-003",
   "properties": {
    "id": "BLDG-003",
    "layer": "BUILDING_FOOTPRINT",
    "source_type": "agent_generated_design",
    "confidence": "medium",
    "geometry_role": "design_proposal",
    "building_type": "incubator",
    "name_zh": "原点社区孵化建筑群"
   },
   "geometry": {
    "type": "Polygon",
    "coordinates": [
     [
      [
       116.343,
       39.975
      ],
      [
       116.349,
       39.975
      ],
      [
       116.349,
       39.981
      ],
      [
       116.343,
       39.981
      ],
      [
       116.343,
       39.975
      ]
     ]
    ]
   }
  },
  {
   "type": "Feature",
   "id": "BLDG-004",
   "properties": {
    "id": "BLDG-004",
    "layer": "BUILDING_FOOTPRINT",
    "source_type": "agent_generated_design",
    "confidence": "medium",
    "geometry_role": "design_proposal",
    "building_type": "education",
    "name_zh": "近校成果转化建筑群"
   },
   "geometry": {
    "type": "Polygon",
    "coordinates": [
     [
      [
       116.344,
       39.9835
      ],
      [
       116.3505,
       39.9835
      ],
      [
       116.3505,
       39.9885
      ],
      [
       116.344,
       39.9885
      ],
      [
       116.344,
       39.9835
      ]
     ]
    ]
   }
  },
  {
   "type": "Feature",
   "id": "BLDG-005",
   "properties": {
    "id": "BLDG-005",
    "layer": "BUILDING_FOOTPRINT",
    "source_type": "agent_generated_design",
    "confidence": "medium",
    "geometry_role": "design_proposal",
    "building_type": "incubator",
    "name_zh": "众智园加速核心建筑群"
   },
   "geometry": {
    "type": "Polygon",
    "coordinates": [
     [
      [
       116.345,
       40.01
      ],
      [
       116.352,
       40.01
      ],
      [
       116.352,
       40.017
      ],
      [
       116.345,
       40.017
      ],
      [
       116.345,
       40.01
      ]
     ]
    ]
   }
  },
  {
   "type": "Feature",
   "id": "BLDG-006",
   "properties": {
    "id": "BLDG-006",
    "layer": "BUILDING_FOOTPRINT",
    "source_type": "agent_generated_design",
    "confidence": "medium",
    "geometry_role": "design_proposal",
    "building_type": "lab",
    "name_zh": "全栈自主创新实验室群"
   },
   "geometry": {
    "type": "Polygon",
    "coordinates": [
     [
      [
       116.3455,
       40.0185
      ],
      [
       116.351,
       40.0185
      ],
      [
       116.351,
       40.0235
      ],
      [
       116.3455,
       40.0235
      ],
      [
       116.3455,
       40.0185
      ]
     ]
    ]
   }
  }
 ]
}