{
 "type": "FeatureCollection",
 "features": [
  {
   "type": "Feature",
   "id": "GREEN-001",
   "properties": {
    "id": "GREEN-001",
    "layer": "GREEN_SPACE",
    "source_type": "agent_generated_design",
    "confidence": "medium",
    "geometry_role": "design_proposal",
    "green_space_type": "park",
    "name_zh": "京张遗址公园活力带"
   },
   "geometry": {
    "type": "Polygon",
    "coordinates": [
     [
      [
       116.342,
       39.99
      ],
      [
       116.3533,
       39.99
      ],
      [
       116.3533,
       40.0075
      ],
      [
       116.343,
       40.0075
      ],
      [
       116.342,
       39.99
      ]
     ]
    ]
   }
  },
  {
   "type": "Feature",
   "id": "GREEN-002",
   "properties": {
    "id": "GREEN-002",
    "layer": "GREEN_SPACE",
    "source_type": "agent_generated_design",
    "confidence": "medium",
    "geometry_role": "design_proposal",
    "green_space_type": "park",
    "name_zh": "清河滨水绿廊"
   },
   "geometry": {
    "type": "Polygon",
    "coordinates": [
     [
      [
       116.343,
       40.0205
      ],
      [
       116.354,
       40.0205
      ],
      [
       116.354,
       40.026
      ],
      [
       116.343,
       40.026
      ],
      [
       116.343,
       40.0205
      ]
     ]
    ]
   }
  }
 ]
}