{
 "type": "FeatureCollection",
 "features": [
  {
   "type": "Feature",
   "id": "LU-001",
   "properties": {
    "id": "LU-001",
    "layer": "LAND_USE",
    "source_type": "agent_generated_design",
    "confidence": "medium",
    "geometry_role": "design_proposal",
    "land_use_code": "05",
    "name_zh": "大钟寺AI产业集聚区"
   },
   "geometry": {
    "type": "Polygon",
    "coordinates": [
     [
      [
       116.3553,
       39.952001
      ],
      [
       116.3553,
       39.939
      ],
      [
       116.3407,
       39.939
      ],
      [
       116.340339,
       39.952001
      ],
      [
       116.3553,
       39.952001
      ]
     ]
    ]
   }
  },
  {
   "type": "Feature",
   "id": "LU-002",
   "properties": {
    "id": "LU-002",
    "layer": "LAND_USE",
    "source_type": "agent_generated_design",
    "confidence": "medium",
    "geometry_role": "design_proposal",
    "land_use_code": "0701",
    "name_zh": "城市更新综合区"
   },
   "geometry": {
    "type": "Polygon",
    "coordinates": [
     [
      [
       116.340339,
       39.952001
      ],
      [
       116.339783,
       39.972001
      ],
      [
       116.35474,
       39.972001
      ],
      [
       116.3553,
       39.965
      ],
      [
       116.3553,
       39.952001
      ],
      [
       116.340339,
       39.952001
      ]
     ]
    ]
   }
  },
  {
   "type": "Feature",
   "id": "LU-003",
   "properties": {
    "id": "LU-003",
    "layer": "LAND_USE",
    "source_type": "agent_generated_design",
    "confidence": "medium",
    "geometry_role": "design_proposal",
    "land_use_code": "0802",
    "name_zh": "AI原点社区·创新校区"
   },
   "geometry": {
    "type": "Polygon",
    "coordinates": [
     [
      [
       116.339783,
       39.972001
      ],
      [
       116.3397,
       39.975
      ],
      [
       116.340668,
       39.990001
      ],
      [
       116.3533,
       39.990001
      ],
      [
       116.3533,
       39.99
      ],
      [
       116.35474,
       39.972001
      ],
      [
       116.339783,
       39.972001
      ]
     ]
    ]
   }
  },
  {
   "type": "Feature",
   "id": "LU-004",
   "properties": {
    "id": "LU-004",
    "layer": "LAND_USE",
    "source_type": "agent_generated_design",
    "confidence": "medium",
    "geometry_role": "design_proposal",
    "land_use_code": "1401",
    "name_zh": "京张遗址公园活力带"
   },
   "geometry": {
    "type": "Polygon",
    "coordinates": [
     [
      [
       116.340668,
       39.990001
      ],
      [
       116.3417,
       40.006
      ],
      [
       116.341773,
       40.007501
      ],
      [
       116.354259,
       40.007501
      ],
      [
       116.3533,
       39.990001
      ],
      [
       116.340668,
       39.990001
      ]
     ]
    ]
   }
  },
  {
   "type": "Feature",
   "id": "LU-005",
   "properties": {
    "id": "LU-005",
    "layer": "LAND_USE",
    "source_type": "agent_generated_design",
    "confidence": "medium",
    "geometry_role": "design_proposal",
    "land_use_code": "0802",
    "name_zh": "众智园AI自主创新加速区"
   },
   "geometry": {
    "type": "Polygon",
    "coordinates": [
     [
      [
       116.341773,
       40.007501
      ],
      [
       116.3427,
       40.0265
      ],
      [
       116.3553,
       40.0265
      ],
      [
       116.354259,
       40.007501
      ],
      [
       116.341773,
       40.007501
      ]
     ]
    ]
   }
  }
 ]
}