{
 "type": "FeatureCollection",
 "features": [
  {
   "type": "Feature",
   "id": "PHASE-001",
   "properties": {
    "id": "PHASE-001",
    "layer": "PHASE",
    "source_type": "agent_generated_design",
    "confidence": "medium",
    "geometry_role": "design_proposal",
    "phase_type": "near_term",
    "name_zh": "近期：大钟寺站一体化与轨道周边更新试点"
   },
   "geometry": {
    "type": "Polygon",
    "coordinates": [
     [
      [
       116.3407,
       39.939
      ],
      [
       116.3553,
       39.939
      ],
      [
       116.3553,
       39.965
      ],
      [
       116.3407,
       39.965
      ],
      [
       116.3407,
       39.939
      ]
     ]
    ]
   }
  },
  {
   "type": "Feature",
   "id": "PHASE-002",
   "properties": {
    "id": "PHASE-002",
    "layer": "PHASE",
    "source_type": "agent_generated_design",
    "confidence": "medium",
    "geometry_role": "design_proposal",
    "phase_type": "mid_term",
    "name_zh": "中期：原点社区成果转化街与遗址公园活力带启动"
   },
   "geometry": {
    "type": "Polygon",
    "coordinates": [
     [
      [
       116.3407,
       39.965
      ],
      [
       116.3553,
       39.965
      ],
      [
       116.3533,
       39.99
      ],
      [
       116.342,
       39.99
      ],
      [
       116.3407,
       39.965
      ]
     ]
    ]
   }
  },
  {
   "type": "Feature",
   "id": "PHASE-003",
   "properties": {
    "id": "PHASE-003",
    "layer": "PHASE",
    "source_type": "agent_generated_design",
    "confidence": "medium",
    "geometry_role": "design_proposal",
    "phase_type": "long_term",
    "name_zh": "长期：众智园加速区与清河滨水界面全面建成"
   },
   "geometry": {
    "type": "Polygon",
    "coordinates": [
     [
      [
       116.342,
       39.99
      ],
      [
       116.3533,
       39.99
      ],
      [
       116.354,
       40.026
      ],
      [
       116.343,
       40.026
      ],
      [
       116.342,
       39.99
      ]
     ]
    ]
   }
  }
 ]
}