{
 "type": "FeatureCollection",
 "features": [
  {
   "type": "Feature",
   "id": "PUBLIC-001",
   "properties": {
    "id": "PUBLIC-001",
    "layer": "PUBLIC_SPACE",
    "source_type": "agent_generated_design",
    "confidence": "medium",
    "geometry_role": "design_proposal",
    "public_space_type": "plaza",
    "name_zh": "遗址公园中央广场"
   },
   "geometry": {
    "type": "Polygon",
    "coordinates": [
     [
      [
       116.3455,
       40.004
      ],
      [
       116.35,
       40.004
      ],
      [
       116.35,
       40.0075
      ],
      [
       116.3455,
       40.0075
      ],
      [
       116.3455,
       40.004
      ]
     ]
    ]
   }
  },
  {
   "type": "Feature",
   "id": "PUBLIC-002",
   "properties": {
    "id": "PUBLIC-002",
    "layer": "PUBLIC_SPACE",
    "source_type": "agent_generated_design",
    "confidence": "medium",
    "geometry_role": "design_proposal",
    "public_space_type": "plaza",
    "name_zh": "大钟寺站前广场"
   },
   "geometry": {
    "type": "Polygon",
    "coordinates": [
     [
      [
       116.346,
       39.945
      ],
      [
       116.351,
       39.945
      ],
      [
       116.351,
       39.949
      ],
      [
       116.346,
       39.949
      ],
      [
       116.346,
       39.945
      ]
     ]
    ]
   }
  },
  {
   "type": "Feature",
   "id": "PUBLIC-003",
   "properties": {
    "id": "PUBLIC-003",
    "layer": "PUBLIC_SPACE",
    "source_type": "agent_generated_design",
    "confidence": "medium",
    "geometry_role": "design_proposal",
    "public_space_type": "courtyard",
    "name_zh": "原点社区共享庭院"
   },
   "geometry": {
    "type": "Polygon",
    "coordinates": [
     [
      [
       116.344,
       39.9765
      ],
      [
       116.348,
       39.9765
      ],
      [
       116.348,
       39.9805
      ],
      [
       116.344,
       39.9805
      ],
      [
       116.344,
       39.9765
      ]
     ]
    ]
   }
  }
 ]
}